NUSAT-50 (NANCY ROMAN)  
1 60493U 24149AB  26068.80227738  .00012094  00000+0  42252-3 0  9994
2 60493  97.3817 150.7693 0002523 238.0469 122.0527 15.29713355 86930
STARLINK-36108          
1 66868U 25281W   26068.17708284  .00030906  00000+0  11276-2 0  9997
2 66868  42.9977 346.6724 0002149 260.4820  99.5789 15.27589441 16093
